[
  {
    "COMMENT": "GENERATED VIA SPACETRACK.ORG API",
    "ORIGINATOR": "18 SPCS",
    "NORAD_CAT_ID": "36508",
    "OBJECT_NAME": "CRYOSAT 2",
    "OBJECT_TYPE": "PAYLOAD",
    "CLASSIFICATION_TYPE": "U",
    "INTLDES": "10013A",
    "EPOCH": "2023-05-27 03:56:13",
    "EPOCH_MICROSECONDS": "931232",
    "MEAN_MOTION": "14.51907423",
    "ECCENTRICITY": "0.000526",
    "INCLINATION": "92.0218",
    "RA_OF_ASC_NODE": "7.3292",
    "ARG_OF_PERICENTER": "133.9603",
    "MEAN_ANOMALY": "226.2038",
    "EPHEMERIS_TYPE": "0",
    "ELEMENT_SET_NO": "999",
    "REV_AT_EPOCH": "69604",
    "BSTAR": "0.000033247",
    "MEAN_MOTION_DOT": "0.00000137",
    "MEAN_MOTION_DDOT": "0",
    "FILE": "3918173",
    "TLE_LINE0": "0 CRYOSAT 2",
    "TLE_LINE1": "1 36508U 10013A   23147.16405013  .00000137  00000-0  33247-4 0  9998",
    "TLE_LINE2": "2 36508  92.0218   7.3292 0005260 133.9603 226.2038 14.51907423696041",
    "OBJECT_ID": "2010-013A",
    "OBJECT_NUMBER": "36508",
    "SEMIMAJOR_AXIS": "7097.562",
    "PERIOD": "99.180",
    "APOGEE": "723.161",
    "PERIGEE": "715.694",
    "DECAYED": "0"
  },
  {
    "COMMENT": "GENERATED VIA SPACETRACK.ORG API",
    "ORIGINATOR": "18 SPCS",
    "NORAD_CAT_ID": "36508",
    "OBJECT_NAME": "CRYOSAT 2",
    "OBJECT_TYPE": "PAYLOAD",
    "CLASSIFICATION_TYPE": "U",
    "INTLDES": "10013A",
    "EPOCH": "2023-05-27 22:07:55",
    "EPOCH_MICROSECONDS": "328160",
    "MEAN_MOTION": "14.51907654",
    "ECCENTRICITY": "0.0005337",
    "INCLINATION": "92.0217",
    "RA_OF_ASC_NODE": "7.5122",
    "ARG_OF_PERICENTER": "132.2208",
    "MEAN_ANOMALY": "227.9453",
    "EPHEMERIS_TYPE": "0",
    "ELEMENT_SET_NO": "999",
    "REV_AT_EPOCH": "69611",
    "BSTAR": "0.000031724",
    "MEAN_MOTION_DOT": "0.00000131",
    "MEAN_MOTION_DDOT": "0",
    "FILE": "3918755",
    "TLE_LINE0": "0 CRYOSAT 2",
    "TLE_LINE1": "1 36508U 10013A   23147.92216815  .00000131  00000-0  31724-4 0  9994",
    "TLE_LINE2": "2 36508  92.0217   7.5122 0005337 132.2208 227.9453 14.51907654696115",
    "OBJECT_ID": "2010-013A",
    "OBJECT_NUMBER": "36508",
    "SEMIMAJOR_AXIS": "7097.562",
    "PERIOD": "99.180",
    "APOGEE": "723.215",
    "PERIGEE": "715.639",
    "DECAYED": "0"
  },
  {
    "COMMENT": "GENERATED VIA SPACETRACK.ORG API",
    "ORIGINATOR": "18 SPCS",
    "NORAD_CAT_ID": "36508",
    "OBJECT_NAME": "CRYOSAT 2",
    "OBJECT_TYPE": "PAYLOAD",
    "CLASSIFICATION_TYPE": "U",
    "INTLDES": "10013A",
    "EPOCH": "2023-05-28 04:44:54",
    "EPOCH_MICROSECONDS": "12768",
    "MEAN_MOTION": "14.51907849",
    "ECCENTRICITY": "0.0005362",
    "INCLINATION": "92.0217",
    "RA_OF_ASC_NODE": "7.5787",
    "ARG_OF_PERICENTER": "131.5973",
    "MEAN_ANOMALY": "228.5695",
    "EPHEMERIS_TYPE": "0",
    "ELEMENT_SET_NO": "999",
    "REV_AT_EPOCH": "69619",
    "BSTAR": "0.000035901",
    "MEAN_MOTION_DOT": "0.00000148",
    "MEAN_MOTION_DDOT": "0",
    "FILE": "3918957",
    "TLE_LINE0": "0 CRYOSAT 2",
    "TLE_LINE1": "1 36508U 10013A   23148.19784737  .00000148  00000-0  35901-4 0  9996",
    "TLE_LINE2": "2 36508  92.0217   7.5787 0005362 131.5973 228.5695 14.51907849696190",
    "OBJECT_ID": "2010-013A",
    "OBJECT_NUMBER": "36508",
    "SEMIMAJOR_AXIS": "7097.561",
    "PERIOD": "99.180",
    "APOGEE": "723.232",
    "PERIGEE": "715.620",
    "DECAYED": "0"
  },
  {
    "COMMENT": "GENERATED VIA SPACETRACK.ORG API",
    "ORIGINATOR": "18 SPCS",
    "NORAD_CAT_ID": "36508",
    "OBJECT_NAME": "CRYOSAT 2",
    "OBJECT_TYPE": "PAYLOAD",
    "CLASSIFICATION_TYPE": "U",
    "INTLDES": "10013A",
    "EPOCH": "2023-05-28 21:17:20",
    "EPOCH_MICROSECONDS": "722560",
    "MEAN_MOTION": "14.51908125",
    "ECCENTRICITY": "0.0005435",
    "INCLINATION": "92.0216",
    "RA_OF_ASC_NODE": "7.745",
    "ARG_OF_PERICENTER": "130.0855",
    "MEAN_ANOMALY": "230.0829",
    "EPHEMERIS_TYPE": "0",
    "ELEMENT_SET_NO": "999",
    "REV_AT_EPOCH": "69625",
    "BSTAR": "0.00003812",
    "MEAN_MOTION_DOT": "0.00000157",
    "MEAN_MOTION_DDOT": "0",
    "FILE": "3919546",
    "TLE_LINE0": "0 CRYOSAT 2",
    "TLE_LINE1": "1 36508U 10013A   23148.88704540  .00000157  00000-0  38120-4 0  9992",
    "TLE_LINE2": "2 36508  92.0216   7.7450 0005435 130.0855 230.0829 14.51908125696254",
    "OBJECT_ID": "2010-013A",
    "OBJECT_NUMBER": "36508",
    "SEMIMAJOR_AXIS": "7097.560",
    "PERIOD": "99.180",
    "APOGEE": "723.283",
    "PERIGEE": "715.568",
    "DECAYED": "0"
  },
  {
    "COMMENT": "GENERATED VIA SPACETRACK.ORG API",
    "ORIGINATOR": "18 SPCS",
    "NORAD_CAT_ID": "36508",
    "OBJECT_NAME": "CRYOSAT 2",
    "OBJECT_TYPE": "PAYLOAD",
    "CLASSIFICATION_TYPE": "U",
    "INTLDES": "10013A",
    "EPOCH": "2023-05-29 10:31:18",
    "EPOCH_MICROSECONDS": "85728",
    "MEAN_MOTION": "14.5190826",
    "ECCENTRICITY": "0.000549",
    "INCLINATION": "92.0215",
    "RA_OF_ASC_NODE": "7.878",
    "ARG_OF_PERICENTER": "128.8461",
    "MEAN_ANOMALY": "231.3237",
    "EPHEMERIS_TYPE": "0",
    "ELEMENT_SET_NO": "999",
    "REV_AT_EPOCH": "69637",
    "BSTAR": "0.000036639",
    "MEAN_MOTION_DOT": "0.00000151",
    "MEAN_MOTION_DDOT": "0",
    "FILE": "3920032",
    "TLE_LINE0": "0 CRYOSAT 2",
    "TLE_LINE1": "1 36508U 10013A   23149.43840377  .00000151  00000-0  36639-4 0  9990",
    "TLE_LINE2": "2 36508  92.0215   7.8780 0005490 128.8461 231.3237 14.51908260696379",
    "OBJECT_ID": "2010-013A",
    "OBJECT_NUMBER": "36508",
    "SEMIMAJOR_AXIS": "7097.560",
    "PERIOD": "99.180",
    "APOGEE": "723.321",
    "PERIGEE": "715.528",
    "DECAYED": "0"
  },
  {
    "COMMENT": "GENERATED VIA SPACETRACK.ORG API",
    "ORIGINATOR": "18 SPCS",
    "NORAD_CAT_ID": "36508",
    "OBJECT_NAME": "CRYOSAT 2",
    "OBJECT_TYPE": "PAYLOAD",
    "CLASSIFICATION_TYPE": "U",
    "INTLDES": "10013A",
    "EPOCH": "2023-05-29 13:49:47",
    "EPOCH_MICROSECONDS": "425440",
    "MEAN_MOTION": "14.5190828",
    "ECCENTRICITY": "0.0005503",
    "INCLINATION": "92.0215",
    "RA_OF_ASC_NODE": "7.9113",
    "ARG_OF_PERICENTER": "128.5239",
    "MEAN_ANOMALY": "231.6463",
    "EPHEMERIS_TYPE": "0",
    "ELEMENT_SET_NO": "999",
    "REV_AT_EPOCH": "69635",
    "BSTAR": "0.000034864",
    "MEAN_MOTION_DOT": "0.00000144",
    "MEAN_MOTION_DDOT": "0",
    "FILE": "3920065",
    "TLE_LINE0": "0 CRYOSAT 2",
    "TLE_LINE1": "1 36508U 10013A   23149.57624335  .00000144  00000-0  34864-4 0  9999",
    "TLE_LINE2": "2 36508  92.0215   7.9113 0005503 128.5239 231.6463 14.51908280696359",
    "OBJECT_ID": "2010-013A",
    "OBJECT_NUMBER": "36508",
    "SEMIMAJOR_AXIS": "7097.560",
    "PERIOD": "99.180",
    "APOGEE": "723.330",
    "PERIGEE": "715.519",
    "DECAYED": "0"
  },
  {
    "COMMENT": "GENERATED VIA SPACETRACK.ORG API",
    "ORIGINATOR": "18 SPCS",
    "NORAD_CAT_ID": "36508",
    "OBJECT_NAME": "CRYOSAT 2",
    "OBJECT_TYPE": "PAYLOAD",
    "CLASSIFICATION_TYPE": "U",
    "INTLDES": "10013A",
    "EPOCH": "2023-05-29 22:06:00",
    "EPOCH_MICROSECONDS": "773856",
    "MEAN_MOTION": "14.51908364",
    "ECCENTRICITY": "0.0005538",
    "INCLINATION": "92.0215",
    "RA_OF_ASC_NODE": "7.9944",
    "ARG_OF_PERICENTER": "127.7427",
    "MEAN_ANOMALY": "232.4283",
    "EPHEMERIS_TYPE": "0",
    "ELEMENT_SET_NO": "999",
    "REV_AT_EPOCH": "69640",
    "BSTAR": "0.000034592",
    "MEAN_MOTION_DOT": "0.00000142",
    "MEAN_MOTION_DDOT": "0",
    "FILE": "3920354",
    "TLE_LINE0": "0 CRYOSAT 2",
    "TLE_LINE1": "1 36508U 10013A   23149.92084229  .00000142  00000-0  34592-4 0  9996",
    "TLE_LINE2": "2 36508  92.0215   7.9944 0005538 127.7427 232.4283 14.51908364696407",
    "OBJECT_ID": "2010-013A",
    "OBJECT_NUMBER": "36508",
    "SEMIMAJOR_AXIS": "7097.559",
    "PERIOD": "99.180",
    "APOGEE": "723.355",
    "PERIGEE": "715.494",
    "DECAYED": "0"
  },
  {
    "COMMENT": "GENERATED VIA SPACETRACK.ORG API",
    "ORIGINATOR": "18 SPCS",
    "NORAD_CAT_ID": "36508",
    "OBJECT_NAME": "CRYOSAT 2",
    "OBJECT_TYPE": "PAYLOAD",
    "CLASSIFICATION_TYPE": "U",
    "INTLDES": "10013A",
    "EPOCH": "2023-05-30 12:59:12",
    "EPOCH_MICROSECONDS": "796512",
    "MEAN_MOTION": "14.51908569",
    "ECCENTRICITY": "0.0005596",
    "INCLINATION": "92.0214",
    "RA_OF_ASC_NODE": "8.1441",
    "ARG_OF_PERICENTER": "126.3889",
    "MEAN_ANOMALY": "233.7835",
    "EPHEMERIS_TYPE": "0",
    "ELEMENT_SET_NO": "999",
    "REV_AT_EPOCH": "69653",
    "BSTAR": "0.000035728",
    "MEAN_MOTION_DOT": "0.00000147",
    "MEAN_MOTION_DDOT": "0",
    "FILE": "3920888",
    "TLE_LINE0": "0 CRYOSAT 2",
    "TLE_LINE1": "1 36508U 10013A   23150.54112033  .00000147  00000-0  35728-4 0  9998",
    "TLE_LINE2": "2 36508  92.0214   8.1441 0005596 126.3889 233.7835 14.51908569696530",
    "OBJECT_ID": "2010-013A",
    "OBJECT_NUMBER": "36508",
    "SEMIMAJOR_AXIS": "7097.559",
    "PERIOD": "99.180",
    "APOGEE": "723.396",
    "PERIGEE": "715.452",
    "DECAYED": "0"
  },
  {
    "COMMENT": "GENERATED VIA SPACETRACK.ORG API",
    "ORIGINATOR": "18 SPCS",
    "NORAD_CAT_ID": "36508",
    "OBJECT_NAME": "CRYOSAT 2",
    "OBJECT_TYPE": "PAYLOAD",
    "CLASSIFICATION_TYPE": "U",
    "INTLDES": "10013A",
    "EPOCH": "2023-05-30 12:59:12",
    "EPOCH_MICROSECONDS": "796512",
    "MEAN_MOTION": "14.51908569",
    "ECCENTRICITY": "0.0005596",
    "INCLINATION": "92.0214",
    "RA_OF_ASC_NODE": "8.1441",
    "ARG_OF_PERICENTER": "126.3889",
    "MEAN_ANOMALY": "233.7835",
    "EPHEMERIS_TYPE": "0",
    "ELEMENT_SET_NO": "999",
    "REV_AT_EPOCH": "69649",
    "BSTAR": "0.000035728",
    "MEAN_MOTION_DOT": "0.00000147",
    "MEAN_MOTION_DDOT": "0",
    "FILE": "3920920",
    "TLE_LINE0": "0 CRYOSAT 2",
    "TLE_LINE1": "1 36508U 10013A   23150.54112033  .00000147  00000-0  35728-4 0  9998",
    "TLE_LINE2": "2 36508  92.0214   8.1441 0005596 126.3889 233.7835 14.51908569696495",
    "OBJECT_ID": "2010-013A",
    "OBJECT_NUMBER": "36508",
    "SEMIMAJOR_AXIS": "7097.559",
    "PERIOD": "99.180",
    "APOGEE": "723.396",
    "PERIGEE": "715.452",
    "DECAYED": "0"
  }
]